NORAD_CAT_ID,OBJECT_NAME,OBJECT_TYPE,EPOCH,MEAN_MOTION,ECCENTRICITY,INCLINATION,RA_OF_ASC_NODE,ARG_OF_PERICENTER,MEAN_ANOMALY,BSTAR,MEAN_MOTION_DOT,MEAN_MOTION_DDOT,TLE_LINE0,TLE_LINE1,TLE_LINE2,SEMIMAJOR_AXIS,PERIOD,APOGEE,PERIGEE,DECAYED
55278.0,STARLINK-5289,PAYLOAD,2024-07-05 04:58:13,14.98332608,0.0002764,70.0004,148.673,267.2109,92.8734,3.8198e-05,3.63e-06,0.0,0 STARLINK-5289,1 55278U 23010K   24187.20710452  .00000363  00000-0  38198-4 0  9991,2 55278  70.0004 148.6730 0002764 267.2109  92.8734 14.98332608 80730,6950.185,96.107,573.971,570.129,0.0
55278.0,STARLINK-5289,PAYLOAD,2024-07-05 06:34:21,14.98333518,0.0002756,70.0004,148.5047,267.5263,92.5581,4.8104e-05,4.81e-06,0.0,0 STARLINK-5289,1 55278U 23010K   24187.27386358  .00000481  00000-0  48104-4 0  9991,2 55278  70.0004 148.5047 0002756 267.5263  92.5581 14.98333518 81048,6950.182,96.107,573.962,570.132,0.0
55278.0,STARLINK-5289,PAYLOAD,2024-07-05 22:35:42,14.98328075,0.0002758,70.0004,146.8215,268.5993,91.485,-2.2063e-05,-3.56e-06,0.0,0 STARLINK-5289,1 55278U 23010K   24187.94146905 -.00000356  00000-0 -22063-4 0  9996,2 55278  70.0004 146.8215 0002758 268.5993  91.4850 14.98328075 81149,6950.199,96.107,573.981,570.147,0.0
55278.0,STARLINK-5289,PAYLOAD,2024-07-06 05:00:15,14.98326797,0.0002796,70.0005,146.1484,267.0007,93.0832,-3.9068e-05,-5.59e-06,0.0,0 STARLINK-5289,1 55278U 23010K   24188.20851030 -.00000559  00000-0 -39068-4 0  9996,2 55278  70.0005 146.1484 0002796 267.0007  93.0832 14.98326797 80880,6950.203,96.107,574.011,570.125,0.0
55278.0,STARLINK-5289,PAYLOAD,2024-07-06 08:12:31,14.98326809,0.0002795,70.0005,145.8118,267.0913,92.9926,-3.7739e-05,-5.43e-06,0.0,0 STARLINK-5289,1 55278U 23010K   24188.34203049 -.00000543  00000-0 -37739-4 0  9998,2 55278  70.0005 145.8118 0002795 267.0913  92.9926 14.98326809 81208,6950.203,96.107,574.01,570.125,0.0
55278.0,STARLINK-5289,PAYLOAD,2024-07-06 22:37:43,14.98326872,0.0002969,70.0002,144.2969,269.1544,90.9275,1.0324e-05,3e-07,0.0,0 STARLINK-5289,1 55278U 23010K   24188.94286946  .00000030  00000-0  10324-4 0  9991,2 55278  70.0002 144.2969 0002969 269.1544  90.9275 14.98326872 81292,6950.203,96.107,574.131,570.004,0.0
55278.0,STARLINK-5289,PAYLOAD,2024-07-07 05:02:16,14.98329876,0.0002981,70.0,143.6234,269.0962,90.9856,-5.7845e-06,-1.62e-06,0.0,0 STARLINK-5289,1 55278U 23010K   24189.20990829 -.00000162  00000-0 -57845-5 0  9991,2 55278  70.0000 143.6234 0002981 269.0962  90.9856 14.98329876 81039,6950.193,96.107,574.13,569.986,0.0
55278.0,STARLINK-5289,PAYLOAD,2024-07-07 06:38:24,14.98330572,0.0002978,70.0001,143.4551,269.1589,90.9229,2.3685e-06,-6.5e-07,0.0,0 STARLINK-5289,1 55278U 23010K   24189.27666766 -.00000065  00000-0  23685-5 0  9994,2 55278  70.0001 143.4551 0002978 269.1589  90.9229 14.98330572 81345,6950.191,96.107,574.126,569.986,0.0
55278.0,STARLINK-5289,PAYLOAD,2024-07-08 06:40:24,14.98334485,0.0003046,70.0,140.9306,269.1813,90.8997,0.00011215,1.246e-05,0.0,0 STARLINK-5289,1 55278U 23010K   24190.27806233  .00001246  00000-0  11215-3 0  9996,2 55278  70.0000 140.9306 0003046 269.1813  90.8997 14.98334485 81192,6950.179,96.107,574.161,569.927,0.0
55278.0,STARLINK-5289,PAYLOAD,2024-07-08 22:41:45,14.98329385,0.0002992,70.0,139.2471,269.3717,90.7099,3.8871e-05,3.71e-06,0.0,0 STARLINK-5289,1 55278U 23010K   24190.94566698  .00000371  00000-0  38871-4 0  9994,2 55278  70.0000 139.2471 0002992 269.3717  90.7099 14.98329385 81599,6950.195,96.107,574.139,569.98,0.0
55278.0,STARLINK-5289,PAYLOAD,2024-07-09 06:42:25,14.98334876,0.000293,70.0001,138.4059,269.0825,90.9998,7.7763e-05,8.35e-06,0.0,0 STARLINK-5289,1 55278U 23010K   24191.27946201  .00000835  00000-0  77763-4 0  9991,2 55278  70.0001 138.4059 0002930 269.0825  90.9998 14.98334876 81346,6950.178,96.107,574.079,570.006,0.0
55278.0,STARLINK-5289,PAYLOAD,2024-07-09 21:07:38,14.98329366,0.0002805,70.0004,136.891,270.0448,90.039,-3.8852e-05,-5.56e-06,0.0,0 STARLINK-5289,1 55278U 23010K   24191.88030827 -.00000556  00000-0 -38852-4 0  9994,2 55278  70.0004 136.8910 0002805 270.0448  90.0390 14.98329366 81436,6950.195,96.107,574.009,570.11,0.0
55278.0,STARLINK-5289,PAYLOAD,2024-07-09 22:43:46,14.98329275,0.0002807,70.0004,136.7227,270.0436,90.0401,-3.9696e-05,-5.67e-06,0.0,0 STARLINK-5289,1 55278U 23010K   24191.94706831 -.00000567  00000-0 -39696-4 0  9995,2 55278  70.0004 136.7227 0002807 270.0436  90.0401 14.98329275 81741,6950.195,96.107,574.011,570.109,0.0
55278.0,STARLINK-5289,PAYLOAD,2024-07-10 13:08:59,14.98331021,0.0002751,70.0006,135.2079,270.6137,89.4707,3.4186e-06,-5.2e-07,0.0,0 STARLINK-5289,1 55278U 23010K   24192.54790537 -.00000052  00000-0  34186-5 0  9996,2 55278  70.0006 135.2079 0002751 270.6137  89.4707 14.98331021 81837,6950.19,96.107,573.967,570.143,0.0
55278.0,STARLINK-5289,PAYLOAD,2024-07-10 21:09:39,14.98332362,0.0002675,70.0006,134.3664,272.7982,87.2871,2.0625e-05,1.53e-06,0.0,0 STARLINK-5289,1 55278U 23010K   24192.88170399  .00000153  00000-0  20625-4 0  9994,2 55278  70.0006 134.3664 0002675 272.7982  87.2871 14.98332362 81582,6950.186,96.107,573.91,570.191,0.0
55278.0,STARLINK-5289,PAYLOAD,2024-07-10 22:45:47,14.98332143,0.0002683,70.0006,134.1981,272.6727,87.4124,1.8355e-05,1.26e-06,0.0,0 STARLINK-5289,1 55278U 23010K   24192.94846406  .00000126  00000-0  18355-4 0  9997,2 55278  70.0006 134.1981 0002683 272.6727  87.4124 14.98332143 81891,6950.186,96.107,573.916,570.187,0.0
55278.0,STARLINK-5289,PAYLOAD,2024-07-11 06:46:27,14.98335099,0.0002669,70.0007,133.3569,270.0886,89.9967,4.2029e-05,4.09e-06,0.0,0 STARLINK-5289,1 55278U 23010K   24193.28226093  .00000409  00000-0  42029-4 0  9998,2 55278  70.0007 133.3569 0002669 270.0886  89.9967 14.98335099 81948,6950.177,96.107,573.897,570.187,0.0
55278.0,STARLINK-5289,PAYLOAD,2024-07-12 05:12:20,14.98328882,0.0002627,70.0009,131.0004,263.5362,96.5498,2.2366e-05,1.74e-06,0.0,0 STARLINK-5289,1 55278U 23010K   24194.21690521  .00000174  00000-0  22366-4 0  9994,2 55278  70.0009 131.0004 0002627 263.5362  96.5498 14.98328882 81786,6950.196,96.107,573.887,570.236,0.0
55278.0,STARLINK-5289,PAYLOAD,2024-07-12 13:13:00,14.9833177,0.0002961,70.0003,130.1575,273.0352,87.0468,-4.2624e-06,-1.44e-06,0.0,0 STARLINK-5289,1 55278U 23010K   24194.55070358 -.00000144  00000-0 -42624-5 0  9990,2 55278  70.0003 130.1575 0002961 273.0352  87.0468 14.98331770 82131,6950.187,96.107,574.11,569.994,0.0
55278.0,STARLINK-5289,PAYLOAD,2024-07-12 22:49:49,14.98325337,0.0002867,70.0005,129.1487,269.1753,90.9078,-3.0485e-05,-4.57e-06,0.0,0 STARLINK-5289,1 55278U 23010K   24194.95126890 -.00000457  00000-0 -30485-4 0  9995,2 55278  70.0005 129.1487 0002867 269.1753  90.9078 14.98325337 82197,6950.207,96.107,574.065,570.08,0.0
55278.0,STARLINK-5289,PAYLOAD,2024-07-13 05:14:21,14.98324775,0.0002841,70.0005,128.4745,265.3529,94.7305,-4.3399e-05,-6.11e-06,0.0,0 STARLINK-5289,1 55278U 23010K   24195.21831017 -.00000611  00000-0 -43399-4 0  9999,2 55278  70.0005 128.4745 0002841 265.3529  94.7305 14.98324775 81938,6950.209,96.107,574.049,570.099,0.0
55278.0,STARLINK-5289,PAYLOAD,2024-07-13 13:15:01,14.98329588,0.0003065,70.0004,127.6332,254.6301,105.452,1.5633e-05,9.4e-07,0.0,0 STARLINK-5289,1 55278U 23010K   24195.55210526  .00000094  00000-0  15633-4 0  9995,2 55278  70.0004 127.6332 0003065 254.6301 105.4520 14.98329588 82283,6950.194,96.107,574.189,569.929,0.0
55278.0,STARLINK-5289,PAYLOAD,2024-07-13 21:15:41,14.98335427,0.0003132,70.0002,126.7916,269.9353,90.1447,4.6113e-05,4.57e-06,0.0,0 STARLINK-5289,1 55278U 23010K   24195.88590175  .00000457  00000-0  46113-4 0  9992,2 55278  70.0002 126.7916 0003132 269.9353  90.1447 14.98335427 82030,6950.176,96.107,574.218,569.864,0.0
55278.0,STARLINK-5289,PAYLOAD,2024-07-13 22:51:49,14.98335423,0.0003136,70.0002,126.6233,269.9414,90.1386,4.589e-05,4.55e-06,0.0,0 STARLINK-5289,1 55278U 23010K   24195.95266156  .00000455  00000-0  45890-4 0  9998,2 55278  70.0002 126.6233 0003136 269.9414  90.1386 14.98335423 82345,6950.176,96.107,574.221,569.862,0.0
55278.0,STARLINK-5289,PAYLOAD,2024-07-14 05:16:21,14.98343237,0.0003047,70.0004,125.9501,270.1943,89.8867,0.00013074,1.468e-05,0.0,0 STARLINK-5289,1 55278U 23010K   24196.21969330  .00001468  00000-0  13074-3 0  9995,2 55278  70.0004 125.9501 0003047 270.1943  89.8867 14.98343237 82081,6950.152,96.106,574.135,569.899,0.0
55278.0,STARLINK-5289,PAYLOAD,2024-07-14 13:17:02,14.98335245,0.0003013,70.0005,125.1083,270.3748,89.7065,4.484e-05,4.42e-06,0.0,0 STARLINK-5289,1 55278U 23010K   24196.55349881  .00000442  00000-0  44840-4 0  9992,2 55278  70.0005 125.1083 0003013 270.3748  89.7065 14.98335245 82132,6950.177,96.107,574.136,569.948,0.0
55278.0,STARLINK-5289,PAYLOAD,2024-07-14 22:53:50,14.98329867,0.0003023,70.0004,124.0988,270.2157,89.8656,7.1406e-05,7.59e-06,0.0,0 STARLINK-5289,1 55278U 23010K   24196.95406109  .00000759  00000-0  71406-4 0  9992,2 55278  70.0004 124.0988 0003023 270.2157  89.8656 14.98329867 82496,6950.193,96.107,574.159,569.957,0.0
55278.0,STARLINK-5289,PAYLOAD,2024-07-15 05:18:22,14.98339143,0.0002948,70.0005,123.4256,270.1099,89.9722,0.00019775,2.268e-05,0.0,0 STARLINK-5289,1 55278U 23010K   24197.22109116  .00002268  00000-0  19775-3 0  9998,2 55278  70.0005 123.4256 0002948 270.1099  89.9722 14.98339143 82535,6950.165,96.106,574.079,569.981,0.0
55278.0,STARLINK-5289,PAYLOAD,2024-07-15 21:19:43,14.98330278,0.0002494,70.0024,121.7461,268.3872,91.7001,-5.3174e-05,-7.27e-06,0.0,0 STARLINK-5289,1 55278U 23010K   24197.88870278 -.00000727  00000-0 -53174-4 0  9996,2 55278  70.0024 121.7461 0002494 268.3872  91.7001 14.98330278 82338,6950.192,96.107,573.79,570.324,0.0
55278.0,STARLINK-5289,PAYLOAD,2024-07-16 05:20:24,14.98330137,0.0002501,70.0022,120.9034,265.7536,94.3337,-4.6764e-05,-6.51e-06,0.0,0 STARLINK-5289,1 55278U 23010K   24198.22250242 -.00000651  00000-0 -46764-4 0  9991,2 55278  70.0022 120.9034 0002501 265.7536  94.3337 14.98330137 82683,6950.192,96.107,573.796,570.319,0.0
